     2              NAVIGATION DATA                         RINEX VERSION / TYPE
CCRINEXN V1.6.0 UX  CDDIS               06-OCT-13 15:33     PGM / RUN BY / DATE 
IGS BROADCAST EPHEMERIS FILE                                COMMENT             
    0.1863D-07  0.7451D-08 -0.1192D-06 -0.5960D-07          ION ALPHA           
    0.1208D+06  0.0000D+00 -0.2621D+06  0.1966D+06          ION BETA            
    0.186264514923D-08 0.710542735760D-14   147456     1761 DELTA-UTC: A0,A1,T,W
    16                                                      LEAP SECONDS        
                                                            END OF HEADER       
 4 13 10  5 18  0  0.0 0.164564698935D-05 0.454747350886D-12 0.000000000000D+00
    0.290000000000D+02-0.582500000000D+02 0.528486299290D-08-0.104674429139D+00
   -0.288151204586D-05 0.106204760959D-01 0.878423452377D-05 0.515361321068D+04
    0.583200000000D+06-0.204890966415D-07 0.255325132706D+01 0.117346644402D-06
    0.938119711331D+00 0.197187500000D+03 0.103149789522D+01-0.858964350742D-08
   -0.674313802162D-09 0.100000000000D+01 0.176000000000D+04 0.000000000000D+00
    0.200000000000D+01 0.000000000000D+00-0.605359673500D-08 0.290000000000D+02
    0.576018000000D+06 0.400000000000D+01 0.000000000000D+00 0.000000000000D+00
 5 13 10  5 18  0  0.0-0.399271491915D-03 0.341060513165D-12 0.000000000000D+00
    0.780000000000D+02 0.863125000000D+02 0.449090134978D-08-0.111327672307D+01
    0.445358455181D-05 0.333069381304D-02 0.123400241137D-04 0.515372502899D+04
    0.583200000000D+06 0.670552253723D-07-0.268065451314D+01-0.670552253723D-07
    0.948587908380D+00 0.135218750000D+03 0.285293188475D+00-0.801711965950D-08
    0.115361948145D-09 0.100000000000D+01 0.176000000000D+04 0.000000000000D+00
    0.200000000000D+01 0.000000000000D+00-0.977888703346D-08 0.780000000000D+02
    0.576018000000D+06 0.400000000000D+01 0.000000000000D+00 0.000000000000D+00
 6 13 10  5 18  0  0.0 0.877371057868D-04 0.185309545486D-10 0.000000000000D+00
    0.250000000000D+02 0.378750000000D+02 0.553487340684D-08-0.139827472540D+01
    0.178627669811D-05 0.812857993878D-02 0.412762165070D-05 0.515367224884D+04
    0.583200000000D+06 0.745058059692D-08 0.144538256301D+01-0.111758708954D-06
    0.941939132963D+00 0.291468750000D+03-0.219543198524D+00-0.871750597626D-08
    0.447875798682D-09 0.000000000000D+00 0.176000000000D+04 0.000000000000D+00
    0.200000000000D+01 0.000000000000D+00-0.512227416039D-08 0.250000000000D+02
    0.576000000000D+06 0.400000000000D+01 0.000000000000D+00 0.000000000000D+00
 7 13 10  5 18  0  0.0 0.266216229647D-03 0.420641299570D-11 0.000000000000D+00
    0.380000000000D+02-0.113062500000D+03 0.416553065393D-08 0.151181442201D+01
   -0.577233731747D-05 0.698045059107D-02 0.839121639729D-05 0.515366872025D+04
    0.583200000000D+06-0.428408384323D-07-0.561049613991D+00 0.115483999252D-06
    0.974929184982D+00 0.226062500000D+03-0.286722640694D+01-0.803069165340D-08
   -0.531807866218D-09 0.100000000000D+01 0.176000000000D+04 0.000000000000D+00
    0.200000000000D+01 0.000000000000D+00-0.107102096081D-07 0.380000000000D+02
    0.576018000000D+06 0.400000000000D+01 0.000000000000D+00 0.000000000000D+00
 8 13 10  5 18  0  0.0 0.890018418431D-05 0.227373675443D-12 0.000000000000D+00
    0.920000000000D+02-0.107656250000D+03 0.357943481211D-08 0.941842836380D+00
   -0.542029738426D-05 0.134851882467D-01 0.932998955250D-05 0.515368756867D+04
    0.583200000000D+06-0.596046447754D-07-0.466901726000D+00 0.284984707832D-06
    0.997933184106D+00 0.220218750000D+03-0.282681996444D+01-0.773067915667D-08
   -0.545379860117D-09 0.100000000000D+01 0.176000000000D+04 0.000000000000D+00
    0.280000000000D+01 0.000000000000D+00-0.372529029846D-08 0.920000000000D+02
    0.577440000000D+06 0.400000000000D+01 0.000000000000D+00 0.000000000000D+00
10 13 10  5 18  0  0.0-0.969981774688D-04-0.136424205266D-11 0.000000000000D+00
    0.510000000000D+02 0.967812500000D+02 0.472305387701D-08-0.867504136309D+00
    0.503100454807D-05 0.128866090672D-01 0.117160379887D-04 0.515367221451D+04
    0.583200000000D+06 0.145286321640D-06-0.266200621216D+01 0.268220901489D-06
    0.943392957543D+00 0.144250000000D+03 0.819653279678D+00-0.827284459718D-08
    0.778603860548D-10 0.100000000000D+01 0.176000000000D+04 0.000000000000D+00
    0.200000000000D+01 0.000000000000D+00-0.232830643654D-08 0.510000000000D+02
    0.580800000000D+06 0.400000000000D+01 0.000000000000D+00 0.000000000000D+00
11 13 10  5 18  0  0.0-0.425977632403D-03-0.341060513165D-11 0.000000000000D+00
    0.730000000000D+02-0.744687500000D+02 0.658348851444D-08 0.174571760392D+01
   -0.412203371525D-05 0.146631774260D-01 0.567361712456D-05 0.515368772125D+04
    0.583200000000D+06-0.184401869774D-06 0.225481562781D+01-0.348314642906D-06
    0.889317185528D+00 0.233843750000D+03 0.122122231457D+01-0.909680748997D-08
   -0.473591155544D-09 0.000000000000D+00 0.176000000000D+04 0.000000000000D+00
    0.200000000000D+01 0.000000000000D+00-0.116415321827D-07 0.730000000000D+02
    0.577020000000D+06 0.400000000000D+01 0.000000000000D+00 0.000000000000D+00
14 13 10  5 18  0  0.0 0.214110594243D-03-0.909494701773D-12 0.000000000000D+00
    0.820000000000D+02 0.297500000000D+02 0.454411785218D-08-0.218635466048D+01
    0.160746276379D-05 0.742517516483D-02 0.178068876266D-05 0.515356159973D+04
    0.583200000000D+06 0.106170773506D-06-0.155771154423D+01-0.447034835815D-07
    0.972363579235D+00 0.352937500000D+03-0.199910316809D+01-0.828105922507D-08
    0.150720563831D-09 0.000000000000D+00 0.176000000000D+04 0.000000000000D+00
    0.200000000000D+01 0.000000000000D+00-0.884756445885D-08 0.820000000000D+02
    0.576000000000D+06 0.400000000000D+01 0.000000000000D+00 0.000000000000D+00
15 13 10  5 18  0  0.0-0.140485819429D-03-0.193267624127D-11 0.000000000000D+00
    0.160000000000D+02 0.618125000000D+02 0.538022410793D-08-0.265915199901D+01
    0.318326056004D-05 0.562918302603D-02 0.211596488953D-05 0.515356967354D+04
    0.583200000000D+06-0.949949026108D-07-0.166203844109D+01-0.409781932831D-07
    0.939007895711D+00 0.329312500000D+03 0.159695748015D+00-0.876893668998D-08
    0.248224625266D-09 0.100000000000D+01 0.176000000000D+04 0.000000000000D+00
    0.200000000000D+01 0.000000000000D+00-0.977888703346D-08 0.160000000000D+02
    0.576018000000D+06 0.400000000000D+01 0.000000000000D+00 0.000000000000D+00
16 13 10  5 18  0  0.0-0.245198607445D-03 0.909494701773D-12 0.000000000000D+00
    0.150000000000D+02 0.282812500000D+02 0.374658463172D-08-0.969878302319D+00
    0.133737921715D-05 0.706863531377D-02 0.120289623737D-04 0.515372601128D+04
    0.583200000000D+06 0.838190317154D-07 0.516887651588D+00-0.139698386192D-06
    0.986304552161D+00 0.157062500000D+03 0.135657619416D+00-0.761674583947D-08
    0.519307345521D-09 0.000000000000D+00 0.176000000000D+04 0.000000000000D+00
    0.200000000000D+01 0.000000000000D+00-0.977888703346D-08 0.150000000000D+02
    0.576000000000D+06 0.400000000000D+01 0.000000000000D+00 0.000000000000D+00
18 13 10  5 18  0  0.0 0.277752056718D-03 0.204636307899D-11 0.000000000000D+00
    0.720000000000D+02 0.760312500000D+02 0.521736018114D-08-0.408988567718D+00
    0.405870378017D-05 0.145717305131D-01 0.114925205708D-04 0.515364554405D+04
    0.583200000000D+06-0.633299350738D-07-0.268090434883D+01 0.178813934326D-06
    0.927168673783D+00 0.143187500000D+03-0.207523342493D+01-0.861357307561D-08
    0.792890169915D-10 0.100000000000D+01 0.176000000000D+04 0.000000000000D+00
    0.200000000000D+01 0.000000000000D+00-0.107102096081D-07 0.720000000000D+02
    0.576018000000D+06 0.400000000000D+01 0.000000000000D+00 0.000000000000D+00
19 13 10  5 18  0  0.0-0.409204512834D-03-0.272848410532D-11 0.000000000000D+00
    0.680000000000D+02 0.143437500000D+02 0.507806866480D-08-0.277360608963D+01
    0.651925802231D-06 0.955970957875D-02 0.377185642719D-05 0.515373689270D+04
    0.583200000000D+06-0.108033418655D-06 0.160361931357D+01-0.180676579475D-06
    0.963248897400D+00 0.310937500000D+03 0.389096918031D+00-0.832534678411D-08
    0.173935816554D-09 0.000000000000D+00 0.176000000000D+04 0.000000000000D+00
    0.200000000000D+01 0.000000000000D+00-0.144354999065D-07 0.680000000000D+02
    0.576000000000D+06 0.400000000000D+01 0.000000000000D+00 0.000000000000D+00
20 13 10  5 18  0  0.0 0.127222854644D-03 0.272848410532D-11 0.000000000000D+00
    0.890000000000D+02 0.856250000000D+02 0.506771109051D-08 0.766751777375D-01
    0.445544719696D-05 0.561315740924D-02 0.116564333439D-04 0.515367582703D+04
    0.583200000000D+06-0.763684511185D-07-0.273418349758D+01 0.651925802231D-07
    0.928043538293D+00 0.137093750000D+03 0.128425964479D+01-0.836677708128D-08
    0.482162941165D-10 0.100000000000D+01 0.176000000000D+04 0.000000000000D+00
    0.200000000000D+01 0.000000000000D+00-0.791624188423D-08 0.890000000000D+02
    0.576660000000D+06 0.000000000000D+00 0.000000000000D+00 0.000000000000D+00
21 13 10  5 18  0  0.0-0.322105828673D-03-0.193267624127D-11 0.000000000000D+00
    0.710000000000D+02-0.644375000000D+02 0.554237371926D-08 0.611783220918D+00
   -0.312365591526D-05 0.205889418721D-01 0.850670039654D-05 0.515362032700D+04
    0.583200000000D+06-0.283122062683D-06 0.255604691085D+01 0.763684511185D-07
    0.931961199262D+00 0.206937500000D+03-0.210044723350D+01-0.886501212048D-08
   -0.761817447040D-09 0.000000000000D+00 0.176000000000D+04 0.000000000000D+00
    0.200000000000D+01 0.000000000000D+00-0.111758708954D-07 0.710000000000D+02
    0.576000000000D+06 0.400000000000D+01 0.000000000000D+00 0.000000000000D+00
